IRIDIUM 136             
1 42962U 17061H   24239.59221035  .00000167  00000+0  52552-4 0  9991
2 42962  86.3963 300.8978 0002341  88.4883 271.6581 14.34219363360290
